{
  "type": "FeatureCollection",
  "features": [
    {
      "type": "Feature",
      "properties": {
        "norad_id": 66477,
        "name": "STARLINK-35354",
        "group": "last-30-days",
        "lat": 36.00211872523183,
        "lon": 151.23269142021655,
        "alt_km": 410.367057802634,
        "timestamp": "2025-12-07T18:50:15.513657+00:00",
        "meta_object_name": "STARLINK-35354",
        "meta_object_id": "2025-262X",
        "meta_epoch": "2025-12-07T06:00:04.999968",
        "meta_mean_motion": 15.50602002,
        "meta_eccentricity": 0.00014205,
        "meta_inclination": 43.0006,
        "meta_ra_of_asc_node": 103.1265,
        "meta_arg_of_pericenter": 258.5041,
        "meta_mean_anomaly": 52.0111,
        "meta_ephemeris_type": 0,
        "meta_classification_type": "U",
        "meta_norad_cat_id": 66477,
        "meta_element_set_no": 999,
        "meta_rev_at_epoch": 475,
        "meta_bstar": -0.0013252093,
        "meta_mean_motion_dot": -0.00077384,
        "meta_mean_motion_ddot": 0,
        "tle_line1": "1 66477U 25262X   25341.25005787 -.00077384  00000+0 -13252-2 0  9991",
        "tle_line2": "2 66477  43.0006 103.1265 0001420 258.5041  52.0111 15.50602002  4752"
      },
      "geometry": {
        "type": "Point",
        "coordinates": [
          151.23269142021655,
          36.00211872523183
        ]
      }
    },
    {
      "type": "Feature",
      "properties": {
        "norad_id": 66478,
        "name": "STARLINK-35283",
        "group": "last-30-days",
        "lat": 36.81186664947834,
        "lon": 153.42287036993073,
        "alt_km": 410.10733849407825,
        "timestamp": "2025-12-07T18:50:15.513667+00:00",
        "meta_object_name": "STARLINK-35283",
        "meta_object_id": "2025-262Y",
        "meta_epoch": "2025-12-07T06:00:04.999968",
        "meta_mean_motion": 15.50525786,
        "meta_eccentricity": 0.00015966,
        "meta_inclination": 43.0006,
        "meta_ra_of_asc_node": 103.1211,
        "meta_arg_of_pericenter": 259.4412,
        "meta_mean_anomaly": 53.0103,
        "meta_ephemeris_type": 0,
        "meta_classification_type": "U",
        "meta_norad_cat_id": 66478,
        "meta_element_set_no": 999,
        "meta_rev_at_epoch": 475,
        "meta_bstar": 0.0011844418,
        "meta_mean_motion_dot": 0.00069632,
        "meta_mean_motion_ddot": 0,
        "tle_line1": "1 66478U 25262Y   25341.25005787  .00069632  00000+0  11844-2 0  9992",
        "tle_line2": "2 66478  43.0006 103.1211 0001596 259.4412  53.0103 15.50525786  4755"
      },
      "geometry": {
        "type": "Point",
        "coordinates": [
          153.42287036993073,
          36.81186664947834
        ]
      }
    },
    {
      "type": "Feature",
      "properties": {
        "norad_id": 66479,
        "name": "STARLINK-35581",
        "group": "last-30-days",
        "lat": 35.166287981626596,
        "lon": 149.11912440609433,
        "alt_km": 410.43708486012383,
        "timestamp": "2025-12-07T18:50:15.513677+00:00",
        "meta_object_name": "STARLINK-35581",
        "meta_object_id": "2025-262Z",
        "meta_epoch": "2025-12-07T06:00:04.999968",
        "meta_mean_motion": 15.50585956,
        "meta_eccentricity": 0.00014278,
        "meta_inclination": 43.0006,
        "meta_ra_of_asc_node": 103.1307,
        "meta_arg_of_pericenter": 259.6745,
        "meta_mean_anomaly": 48.9288,
        "meta_ephemeris_type": 0,
        "meta_classification_type": "U",
        "meta_norad_cat_id": 66479,
        "meta_element_set_no": 999,
        "meta_rev_at_epoch": 475,
        "meta_bstar": -0.00082809014,
        "meta_mean_motion_dot": -0.00048632,
        "meta_mean_motion_ddot": 0,
        "tle_line1": "1 66479U 25262Z   25341.25005787 -.00048632  00000+0 -82809-3 0  9992",
        "tle_line2": "2 66479  43.0006 103.1307 0001427 259.6745  48.9288 15.50585956  4758"
      },
      "geometry": {
        "type": "Point",
        "coordinates": [
          149.11912440609433,
          35.166287981626596
        ]
      }
    },
    {
      "type": "Feature",
      "properties": {
        "norad_id": 66480,
        "name": "STARLINK-35670",
        "group": "last-30-days",
        "lat": 37.56158180242373,
        "lon": 155.60182675214313,
        "alt_km": 410.1398146575566,
        "timestamp": "2025-12-07T18:50:15.513687+00:00",
        "meta_object_name": "STARLINK-35670",
        "meta_object_id": "2025-262AA",
        "meta_epoch": "2025-12-07T06:00:04.999968",
        "meta_mean_motion": 15.50600423,
        "meta_eccentricity": 0.00014145,
        "meta_inclination": 43.0007,
        "meta_ra_of_asc_node": 103.116,
        "meta_arg_of_pericenter": 258.3335,
        "meta_mean_anomaly": 56.0179,
        "meta_ephemeris_type": 0,
        "meta_classification_type": "U",
        "meta_norad_cat_id": 66480,
        "meta_element_set_no": 999,
        "meta_rev_at_epoch": 475,
        "meta_bstar": -0.0013027882,
        "meta_mean_motion_dot": -0.00076089,
        "meta_mean_motion_ddot": 0,
        "tle_line1": "1 66480U 25262AA  25341.25005787 -.00076089  00000+0 -13028-2 0  9997",
        "tle_line2": "2 66480  43.0007 103.1160 0001414 258.3335  56.0179 15.50600423  4751"
      },
      "geometry": {
        "type": "Point",
        "coordinates": [
          155.60182675214313,
          37.56158180242373
        ]
      }
    },
    {
      "type": "Feature",
      "properties": {
        "norad_id": 66481,
        "name": "STARLINK-35698",
        "group": "last-30-days",
        "lat": 38.28167836630535,
        "lon": 157.86120164770713,
        "alt_km": 410.08967446486076,
        "timestamp": "2025-12-07T18:50:15.513698+00:00",
        "meta_object_name": "STARLINK-35698",
        "meta_object_id": "2025-262AB",
        "meta_epoch": "2025-12-07T06:00:04.999968",
        "meta_mean_motion": 15.50594608,
        "meta_eccentricity": 0.00015488,
        "meta_inclination": 43.0007,
        "meta_ra_of_asc_node": 103.1105,
        "meta_arg_of_pericenter": 261.2057,
        "meta_mean_anomaly": 55.0689,
        "meta_ephemeris_type": 0,
        "meta_classification_type": "U",
        "meta_norad_cat_id": 66481,
        "meta_element_set_no": 999,
        "meta_rev_at_epoch": 475,
        "meta_bstar": -0.0011206291,
        "meta_mean_motion_dot": -0.00065572,
        "meta_mean_motion_ddot": 0,
        "tle_line1": "1 66481U 25262AB  25341.25005787 -.00065572  00000+0 -11206-2 0  9999",
        "tle_line2": "2 66481  43.0007 103.1105 0001548 261.2057  55.0689 15.50594608  4755"
      },
      "geometry": {
        "type": "Point",
        "coordinates": [
          157.86120164770713,
          38.28167836630535
        ]
      }
    },
    {
      "type": "Feature",
      "properties": {
        "norad_id": 66482,
        "name": "STARLINK-35648",
        "group": "last-30-days",
        "lat": 38.963939440950654,
        "lon": 160.1892993727671,
        "alt_km": 409.85386613985156,
        "timestamp": "2025-12-07T18:50:15.513710+00:00",
        "meta_object_name": "STARLINK-35648",
        "meta_object_id": "2025-262AC",
        "meta_epoch": "2025-12-07T06:00:04.999968",
        "meta_mean_motion": 15.50507303,
        "meta_eccentricity": 0.0001318,
        "meta_inclination": 43.0006,
        "meta_ra_of_asc_node": 103.1058,
        "meta_arg_of_pericenter": 256.7618,
        "meta_mean_anomaly": 61.5421,
        "meta_ephemeris_type": 0,
        "meta_classification_type": "U",
        "meta_norad_cat_id": 66482,
        "meta_element_set_no": 999,
        "meta_rev_at_epoch": 460,
        "meta_bstar": 0.00028713869,
        "meta_mean_motion_dot": 0.00016496,
        "meta_mean_motion_ddot": 0,
        "tle_line1": "1 66482U 25262AC  25341.25005787  .00016496  00000+0  28714-3 0  9992",
        "tle_line2": "2 66482  43.0006 103.1058 0001318 256.7618  61.5421 15.50507303  4605"
      },
      "geometry": {
        "type": "Point",
        "coordinates": [
          160.1892993727671,
          38.963939440950654
        ]
      }
    },
    {
      "type": "Feature",
      "properties": {
        "norad_id": 66483,
        "name": "STARLINK-35654",
        "group": "last-30-days",
        "lat": 39.58206391550547,
        "lon": 162.4933427347741,
        "alt_km": 409.7982039119488,
        "timestamp": "2025-12-07T18:50:15.513720+00:00",
        "meta_object_name": "STARLINK-35654",
        "meta_object_id": "2025-262AD",
        "meta_epoch": "2025-12-07T06:00:04.999968",
        "meta_mean_motion": 15.50588195,
        "meta_eccentricity": 0.0001405,
        "meta_inclination": 43.0007,
        "meta_ra_of_asc_node": 103.1004,
        "meta_arg_of_pericenter": 260.5941,
        "meta_mean_anomaly": 59.5154,
        "meta_ephemeris_type": 0,
        "meta_classification_type": "U",
        "meta_norad_cat_id": 66483,
        "meta_element_set_no": 999,
        "meta_rev_at_epoch": 475,
        "meta_bstar": -0.00092539006,
        "meta_mean_motion_dot": -0.00054272,
        "meta_mean_motion_ddot": 0,
        "tle_line1": "1 66483U 25262AD  25341.25005787 -.00054272  00000+0 -92539-3 0  9995",
        "tle_line2": "2 66483  43.0007 103.1004 0001405 260.5941  59.5154 15.50588195  4751"
      },
      "geometry": {
        "type": "Point",
        "coordinates": [
          162.4933427347741,
          39.58206391550547
        ]
      }
    }
  ]
}